[{"OBJECT_NAME":"CZ-7 R/B","OBJECT_ID":"2026-102B","EPOCH":"2026-05-22T04:03:25.663392","MEAN_MOTION":16.48718798,"ECCENTRICITY":0.00218491,"INCLINATION":41.4904,"RA_OF_ASC_NODE":114.5024,"ARG_OF_PERICENTER":260.8309,"MEAN_ANOMALY":99.009,"EPHEMERIS_TYPE":0,"CLASSIFICATION_TYPE":"U","NORAD_CAT_ID":69050,"ELEMENT_SET_NO":999,"REV_AT_EPOCH":180,"BSTAR":0.00012633149,"MEAN_MOTION_DOT":0.12161917,"MEAN_MOTION_DDOT":8.286096e-06},{"OBJECT_NAME":"DRAGON CRS-34","OBJECT_ID":"2026-107A","EPOCH":"2026-05-22T04:43:53.551776","MEAN_MOTION":15.49307197,"ECCENTRICITY":0.00075364,"INCLINATION":51.6329,"RA_OF_ASC_NODE":68.763,"ARG_OF_PERICENTER":85.1158,"MEAN_ANOMALY":275.0691,"EPHEMERIS_TYPE":0,"CLASSIFICATION_TYPE":"U","NORAD_CAT_ID":69103,"ELEMENT_SET_NO":999,"REV_AT_EPOCH":56778,"BSTAR":0.0001326315,"MEAN_MOTION_DOT":6.944e-05,"MEAN_MOTION_DDOT":0},{"OBJECT_NAME":"ATLAS CENTAUR 2","OBJECT_ID":"1963-047A","EPOCH":"2026-05-22T01:27:14.109408","MEAN_MOTION":14.12418692,"ECCENTRICITY":0.05462425,"INCLINATION":30.3524,"RA_OF_ASC_NODE":145.4962,"ARG_OF_PERICENTER":7.099,"MEAN_ANOMALY":353.6987,"EPHEMERIS_TYPE":0,"CLASSIFICATION_TYPE":"U","NORAD_CAT_ID":694,"ELEMENT_SET_NO":999,"REV_AT_EPOCH":14200,"BSTAR":0.00019304548,"MEAN_MOTION_DOT":1.671e-05,"MEAN_MOTION_DDOT":0},{"OBJECT_NAME":"THOR AGENA D R/B","OBJECT_ID":"1964-002A","EPOCH":"2026-05-22T06:31:24.271680","MEAN_MOTION":14.34052678,"ECCENTRICITY":0.00336463,"INCLINATION":99.1166,"RA_OF_ASC_NODE":159.6053,"ARG_OF_PERICENTER":45.7509,"MEAN_ANOMALY":314.6427,"EPHEMERIS_TYPE":0,"CLASSIFICATION_TYPE":"U","NORAD_CAT_ID":733,"ELEMENT_SET_NO":999,"REV_AT_EPOCH":24884,"BSTAR":5.5888866e-05,"MEAN_MOTION_DOT":1.08e-06,"MEAN_MOTION_DDOT":0},{"OBJECT_NAME":"SL-3 R/B","OBJECT_ID":"1964-053B","EPOCH":"2026-05-22T02:53:33.990720","MEAN_MOTION":14.61411118,"ECCENTRICITY":0.00812994,"INCLINATION":65.0752,"RA_OF_ASC_NODE":115.9408,"ARG_OF_PERICENTER":269.2606,"MEAN_ANOMALY":89.9178,"EPHEMERIS_TYPE":0,"CLASSIFICATION_TYPE":"U","NORAD_CAT_ID":877,"ELEMENT_SET_NO":999,"REV_AT_EPOCH":27752,"BSTAR":3.5378091e-05,"MEAN_MOTION_DOT":5.7e-07,"MEAN_MOTION_DDOT":0},{"OBJECT_NAME":"SL-8 R/B","OBJECT_ID":"1967-045B","EPOCH":"2026-05-22T04:55:11.488512","MEAN_MOTION":14.4566864,"ECCENTRICITY":0.00645215,"INCLINATION":74.011,"RA_OF_ASC_NODE":210.7847,"ARG_OF_PERICENTER":201.4349,"MEAN_ANOMALY":158.4106,"EPHEMERIS_TYPE":0,"CLASSIFICATION_TYPE":"U","NORAD_CAT_ID":2802,"ELEMENT_SET_NO":999,"REV_AT_EPOCH":9964,"BSTAR":5.0205023e-05,"MEAN_MOTION_DOT":1.54e-06,"MEAN_MOTION_DDOT":0},{"OBJECT_NAME":"SL-8 R/B","OBJECT_ID":"1968-040B","EPOCH":"2026-05-22T07:16:32.409696","MEAN_MOTION":15.03668276,"ECCENTRICITY":0.00255473,"INCLINATION":74.0283,"RA_OF_ASC_NODE":163.2213,"ARG_OF_PERICENTER":320.8925,"MEAN_ANOMALY":39.0416,"EPHEMERIS_TYPE":0,"CLASSIFICATION_TYPE":"U","NORAD_CAT_ID":3230,"ELEMENT_SET_NO":999,"REV_AT_EPOCH":10107,"BSTAR":0.00011346737,"MEAN_MOTION_DOT":1.521e-05,"MEAN_MOTION_DDOT":0},{"OBJECT_NAME":"OAO 2","OBJECT_ID":"1968-110A","EPOCH":"2026-05-22T06:05:36.253248","MEAN_MOTION":14.47341055,"ECCENTRICITY":0.00050079,"INCLINATION":34.9926,"RA_OF_ASC_NODE":214.4822,"ARG_OF_PERICENTER":63.8815,"MEAN_ANOMALY":296.239,"EPHEMERIS_TYPE":0,"CLASSIFICATION_TYPE":"U","NORAD_CAT_ID":3597,"ELEMENT_SET_NO":999,"REV_AT_EPOCH":2976,"BSTAR":3.4480442e-05,"MEAN_MOTION_DOT":1.09e-06,"MEAN_MOTION_DDOT":0},{"OBJECT_NAME":"ISIS 1","OBJECT_ID":"1969-009A","EPOCH":"2026-05-22T06:14:31.403616","MEAN_MOTION":11.30429211,"ECCENTRICITY":0.170602,"INCLINATION":88.4415,"RA_OF_ASC_NODE":147.2501,"ARG_OF_PERICENTER":300.6374,"MEAN_ANOMALY":43.7258,"EPHEMERIS_TYPE":0,"CLASSIFICATION_TYPE":"U","NORAD_CAT_ID":3669,"ELEMENT_SET_NO":999,"REV_AT_EPOCH":35684,"BSTAR":4.2056496e-05,"MEAN_MOTION_DOT":5.6e-07,"MEAN_MOTION_DDOT":0},{"OBJECT_NAME":"SERT 2","OBJECT_ID":"1970-009A","EPOCH":"2026-05-22T06:46:24.753216","MEAN_MOTION":13.58737376,"ECCENTRICITY":0.00047131,"INCLINATION":99.2835,"RA_OF_ASC_NODE":81.3868,"ARG_OF_PERICENTER":348.9569,"MEAN_ANOMALY":174.7675,"EPHEMERIS_TYPE":0,"CLASSIFICATION_TYPE":"U","NORAD_CAT_ID":4327,"ELEMENT_SET_NO":999,"REV_AT_EPOCH":78988,"BSTAR":5.1174754e-05,"MEAN_MOTION_DOT":-4e-08,"MEAN_MOTION_DDOT":0},{"OBJECT_NAME":"SL-3 R/B","OBJECT_ID":"1971-028B","EPOCH":"2026-05-22T05:12:59.605056","MEAN_MOTION":15.67206829,"ECCENTRICITY":0.00139474,"INCLINATION":81.2332,"RA_OF_ASC_NODE":320.7815,"ARG_OF_PERICENTER":19.8188,"MEAN_ANOMALY":340.3607,"EPHEMERIS_TYPE":0,"CLASSIFICATION_TYPE":"U","NORAD_CAT_ID":5118,"ELEMENT_SET_NO":999,"REV_AT_EPOCH":17,"BSTAR":0.0003207534,"MEAN_MOTION_DOT":0.00034641,"MEAN_MOTION_DDOT":0},{"OBJECT_NAME":"ASTEX 1","OBJECT_ID":"1971-089A","EPOCH":"2026-05-22T03:20:49.028640","MEAN_MOTION":14.50828926,"ECCENTRICITY":0.00151286,"INCLINATION":92.7012,"RA_OF_ASC_NODE":175.4658,"ARG_OF_PERICENTER":187.6438,"MEAN_ANOMALY":172.454,"EPHEMERIS_TYPE":0,"CLASSIFICATION_TYPE":"U","NORAD_CAT_ID":5560,"ELEMENT_SET_NO":999,"REV_AT_EPOCH":87295,"BSTAR":7.140252e-05,"MEAN_MOTION_DOT":2.81e-06,"MEAN_MOTION_DDOT":0},{"OBJECT_NAME":"SL-8 R/B","OBJECT_ID":"1971-119B","EPOCH":"2026-05-22T03:55:33.827808","MEAN_MOTION":14.39207198,"ECCENTRICITY":0.0544329,"INCLINATION":73.8878,"RA_OF_ASC_NODE":38.2327,"ARG_OF_PERICENTER":349.4869,"MEAN_ANOMALY":9.525,"EPHEMERIS_TYPE":0,"CLASSIFICATION_TYPE":"U","NORAD_CAT_ID":5730,"ELEMENT_SET_NO":999,"REV_AT_EPOCH":66605,"BSTAR":0.00036756218,"MEAN_MOTION_DOT":7.147e-05,"MEAN_MOTION_DDOT":0},{"OBJECT_NAME":"OAO 3 (COPERNICUS)","OBJECT_ID":"1972-065A","EPOCH":"2026-05-22T07:33:14.672160","MEAN_MOTION":14.60044774,"ECCENTRICITY":0.00062558,"INCLINATION":35.0056,"RA_OF_ASC_NODE":237.8255,"ARG_OF_PERICENTER":38.1022,"MEAN_ANOMALY":1.4561,"EPHEMERIS_TYPE":0,"CLASSIFICATION_TYPE":"U","NORAD_CAT_ID":6153,"ELEMENT_SET_NO":999,"REV_AT_EPOCH":85696,"BSTAR":3.8947885e-05,"MEAN_MOTION_DOT":1.69e-06,"MEAN_MOTION_DDOT":0},{"OBJECT_NAME":"ATLAS CENTAUR R/B","OBJECT_ID":"1972-065B","EPOCH":"2026-05-22T06:26:21.319584","MEAN_MOTION":14.77864257,"ECCENTRICITY":0.00341945,"INCLINATION":35.0015,"RA_OF_ASC_NODE":234.488,"ARG_OF_PERICENTER":269.8596,"MEAN_ANOMALY":89.8186,"EPHEMERIS_TYPE":0,"CLASSIFICATION_TYPE":"U","NORAD_CAT_ID":6155,"ELEMENT_SET_NO":999,"REV_AT_EPOCH":85215,"BSTAR":8.8133529e-05,"MEAN_MOTION_DOT":6.27e-06,"MEAN_MOTION_DDOT":0},{"OBJECT_NAME":"SL-8 R/B","OBJECT_ID":"1975-112B","EPOCH":"2026-05-22T05:38:18.606912","MEAN_MOTION":14.38234026,"ECCENTRICITY":0.00164319,"INCLINATION":74.0611,"RA_OF_ASC_NODE":243.6152,"ARG_OF_PERICENTER":313.8236,"MEAN_ANOMALY":46.1558,"EPHEMERIS_TYPE":0,"CLASSIFICATION_TYPE":"U","NORAD_CAT_ID":8459,"ELEMENT_SET_NO":999,"REV_AT_EPOCH":64244,"BSTAR":5.141539e-05,"MEAN_MOTION_DOT":1.3e-06,"MEAN_MOTION_DDOT":0},{"OBJECT_NAME":"SL-3 R/B","OBJECT_ID":"1977-057B","EPOCH":"2026-05-22T05:22:53.543712","MEAN_MOTION":15.47273103,"ECCENTRICITY":0.0007273,"INCLINATION":97.5839,"RA_OF_ASC_NODE":317.5216,"ARG_OF_PERICENTER":29.12,"MEAN_ANOMALY":331.0454,"EPHEMERIS_TYPE":0,"CLASSIFICATION_TYPE":"U","NORAD_CAT_ID":10114,"ELEMENT_SET_NO":999,"REV_AT_EPOCH":67969,"BSTAR":0.00016546064,"MEAN_MOTION_DOT":8.342e-05,"MEAN_MOTION_DDOT":0}]