ATLAS CENTAUR 2         
1 00694U 63047A   26142.06057997  .00001671  00000+0  19305-3 0  9992
2 00694  30.3524 145.4962 0546242   7.0990 353.6987 14.12418692142003
THOR AGENA D R/B        
1 00733U 64002A   26142.27180870  .00000108  00000+0  55889-4 0  9990
2 00733  99.1166 159.6053 0033646  45.7509 314.6427 14.34052678248841
SL-3 R/B                
1 00877U 64053B   26142.12053230  .00000057  00000+0  35378-4 0  9992
2 00877  65.0752 115.9408 0081299 269.2606  89.9178 14.61411118277520
SL-8 R/B                
1 02802U 67045B   26142.20499408  .00000154  00000+0  50205-4 0  9990
2 02802  74.0110 210.7847 0064521 201.4349 158.4106 14.45668640 99644
SL-8 R/B                
1 03230U 68040B   26142.30315289  .00001521  00000+0  11347-3 0  9999
2 03230  74.0283 163.2213 0025547 320.8925  39.0416 15.03668276101070
OAO 2                   
1 03597U 68110A   26142.25389182  .00000109  00000+0  34480-4 0  9995
2 03597  34.9926 214.4822 0005007  63.8815 296.2390 14.47341055 29764
ISIS 1                  
1 03669U 69009A   26142.26008569  .00000056  00000+0  42056-4 0  9990
2 03669  88.4415 147.2501 1706020 300.6374  43.7258 11.30429211356844
SERT 2                  
1 04327U 70009A   26142.28223094 -.00000004  00000+0  51175-4 0  9994
2 04327  99.2835  81.3868 0004713 348.9569 174.7675 13.58737376789884
SL-3 R/B                
1 05118U 71028B   26142.21735654  .00034641  00000+0  32075-3 0  9998
2 05118  81.2332 320.7815 0013947  19.8188 340.3607 15.67206829   178
ASTEX 1                 
1 05560U 71089A   26142.13945635  .00000281  00000+0  71403-4 0  9991
2 05560  92.7012 175.4658 0015128 187.6438 172.4540 14.50828926872958
SL-8 R/B                
1 05730U 71119B   26142.16358597  .00007147  00000+0  36756-3 0  9991
2 05730  73.8878  38.2327 0544329 349.4869   9.5250 14.39207198666051
OAO 3 (COPERNICUS)      
1 06153U 72065A   26142.31475315  .00000169  00000+0  38948-4 0  9990
2 06153  35.0056 237.8255 0006255  38.1022   1.4561 14.60044774856960
ATLAS CENTAUR R/B       
1 06155U 72065B   26142.26830231  .00000627  00000+0  88134-4 0  9999
2 06155  35.0015 234.4880 0034194 269.8596  89.8186 14.77864257852150
SL-8 R/B                
1 08459U 75112B   26142.23493758  .00000130  00000+0  51415-4 0  9991
2 08459  74.0611 243.6152 0016431 313.8236  46.1558 14.38234026642443
SL-3 R/B                
1 10114U 77057B   26142.22423083  .00008342  00000+0  16546-3 0  9993
2 10114  97.5839 317.5216 0007273  29.1200 331.0454 15.47273103679698
CZ-7 R/B                
1 69050U 26102B   26142.16904703  .12161917  82861-5  12633-3 0  9992
2 69050  41.4904 114.5024 0021849 260.8309  99.0090 16.48718798  1808
DRAGON CRS-34           
1 69103U 26107A   26142.19714759  .00006944  00000+0  13263-3 0  9993
2 69103  51.6329  68.7630 0007536  85.1158 275.0691 15.49307197567785
